{
  "type": "FeatureCollection",
  "features": [
    {
      "type": "Feature",
      "properties": {
        "norad_id": 66500,
        "name": "STARLINK-35894",
        "group": "last-30-days",
        "lat": 42.951779794855156,
        "lon": -91.06457145940897,
        "alt_km": 347.0162903922437,
        "timestamp": "2025-12-03T04:52:28.420676+00:00",
        "meta_object_name": "STARLINK-35894",
        "meta_object_id": "2025-263R",
        "meta_epoch": "2025-12-02T20:00:03.000384",
        "meta_mean_motion": 15.74246942,
        "meta_eccentricity": 0.000132,
        "meta_inclination": 42.9985,
        "meta_ra_of_asc_node": 183.6119,
        "meta_arg_of_pericenter": 281.1752,
        "meta_mean_anomaly": 230.4313,
        "meta_ephemeris_type": 0,
        "meta_classification_type": "U",
        "meta_norad_cat_id": 66500,
        "meta_element_set_no": 999,
        "meta_rev_at_epoch": 404,
        "meta_bstar": -0.019356,
        "meta_mean_motion_dot": -0.02514017,
        "meta_mean_motion_ddot": 0,
        "tle_line1": "1 66500U 25263R   25336.83336806 -.02514017  00000+0 -19356-1 0  9997",
        "tle_line2": "2 66500  42.9985 183.6119 0001320 281.1752 230.4313 15.74246942  4045"
      },
      "geometry": {
        "type": "Point",
        "coordinates": [
          -91.06457145940897,
          42.951779794855156
        ]
      }
    },
    {
      "type": "Feature",
      "properties": {
        "norad_id": 66501,
        "name": "STARLINK-35897",
        "group": "last-30-days",
        "lat": 42.93418195137535,
        "lon": -85.4835713619196,
        "alt_km": 345.730751701185,
        "timestamp": "2025-12-03T04:52:28.420688+00:00",
        "meta_object_name": "STARLINK-35897",
        "meta_object_id": "2025-263S",
        "meta_epoch": "2025-12-02T20:00:03.000384",
        "meta_mean_motion": 15.74212426,
        "meta_eccentricity": 0.0001154,
        "meta_inclination": 42.9983,
        "meta_ra_of_asc_node": 183.6018,
        "meta_arg_of_pericenter": 268.3944,
        "meta_mean_anomaly": 247.056,
        "meta_ephemeris_type": 0,
        "meta_classification_type": "U",
        "meta_norad_cat_id": 66501,
        "meta_element_set_no": 999,
        "meta_rev_at_epoch": 404,
        "meta_bstar": -0.015115,
        "meta_mean_motion_dot": -0.01980776,
        "meta_mean_motion_ddot": 0,
        "tle_line1": "1 66501U 25263S   25336.83336806 -.01980776  00000+0 -15115-1 0  9995",
        "tle_line2": "2 66501  42.9983 183.6018 0001154 268.3944 247.0560 15.74212426  4045"
      },
      "geometry": {
        "type": "Point",
        "coordinates": [
          -85.4835713619196,
          42.93418195137535
        ]
      }
    },
    {
      "type": "Feature",
      "properties": {
        "norad_id": 66502,
        "name": "STARLINK-35922",
        "group": "last-30-days",
        "lat": 42.45110005036635,
        "lon": -77.68304017878937,
        "alt_km": 345.94516870703956,
        "timestamp": "2025-12-03T04:52:28.420703+00:00",
        "meta_object_name": "STARLINK-35922",
        "meta_object_id": "2025-263T",
        "meta_epoch": "2025-12-02T20:00:03.000384",
        "meta_mean_motion": 15.74230158,
        "meta_eccentricity": 0.0001328,
        "meta_inclination": 42.9984,
        "meta_ra_of_asc_node": 183.587,
        "meta_arg_of_pericenter": 279.4936,
        "meta_mean_anomaly": 241.7023,
        "meta_ephemeris_type": 0,
        "meta_classification_type": "U",
        "meta_norad_cat_id": 66502,
        "meta_element_set_no": 999,
        "meta_rev_at_epoch": 404,
        "meta_bstar": -0.015349,
        "meta_mean_motion_dot": -0.02009391,
        "meta_mean_motion_ddot": 0,
        "tle_line1": "1 66502U 25263T   25336.83336806 -.02009391  00000+0 -15349-1 0  9991",
        "tle_line2": "2 66502  42.9984 183.5870 0001328 279.4936 241.7023 15.74230158  4046"
      },
      "geometry": {
        "type": "Point",
        "coordinates": [
          -77.68304017878937,
          42.45110005036635
        ]
      }
    },
    {
      "type": "Feature",
      "properties": {
        "norad_id": 66503,
        "name": "STARLINK-35917",
        "group": "last-30-days",
        "lat": 41.83748361018415,
        "lon": -72.57391691451095,
        "alt_km": 345.74001961450267,
        "timestamp": "2025-12-03T04:52:28.420715+00:00",
        "meta_object_name": "STARLINK-35917",
        "meta_object_id": "2025-263U",
        "meta_epoch": "2025-12-02T16:00:03.000096",
        "meta_mean_motion": 15.74924478,
        "meta_eccentricity": 0.00012359,
        "meta_inclination": 42.9982,
        "meta_ra_of_asc_node": 184.5859,
        "meta_arg_of_pericenter": 259.7629,
        "meta_mean_anomaly": 39.3845,
        "meta_ephemeris_type": 0,
        "meta_classification_type": "U",
        "meta_norad_cat_id": 66503,
        "meta_element_set_no": 999,
        "meta_rev_at_epoch": 401,
        "meta_bstar": -0.014593096,
        "meta_mean_motion_dot": -0.01934021,
        "meta_mean_motion_ddot": 0,
        "tle_line1": "1 66503U 25263U   25336.66670139 -.01934021  00000+0 -14593-1 0  9999",
        "tle_line2": "2 66503  42.9982 184.5859 0001235 259.7629  39.3845 15.74924478  4015"
      },
      "geometry": {
        "type": "Point",
        "coordinates": [
          -72.57391691451095,
          41.83748361018415
        ]
      }
    },
    {
      "type": "Feature",
      "properties": {
        "norad_id": 66504,
        "name": "STARLINK-35916",
        "group": "last-30-days",
        "lat": -42.952062864380146,
        "lon": 94.26984874060612,
        "alt_km": 407.04215173370903,
        "timestamp": "2025-12-03T04:52:28.420726+00:00",
        "meta_object_name": "STARLINK-35916",
        "meta_object_id": "2025-263V",
        "meta_epoch": "2025-12-02T20:00:03.000384",
        "meta_mean_motion": 15.56132202,
        "meta_eccentricity": 0.0001591,
        "meta_inclination": 42.9989,
        "meta_ra_of_asc_node": 183.9884,
        "meta_arg_of_pericenter": 267.7783,
        "meta_mean_anomaly": 91.6122,
        "meta_ephemeris_type": 0,
        "meta_classification_type": "U",
        "meta_norad_cat_id": 66504,
        "meta_element_set_no": 999,
        "meta_rev_at_epoch": 404,
        "meta_bstar": -0.040263,
        "meta_mean_motion_dot": -0.02560529,
        "meta_mean_motion_ddot": 0,
        "tle_line1": "1 66504U 25263V   25336.83336806 -.02560529  00000+0 -40263-1 0  9991",
        "tle_line2": "2 66504  42.9989 183.9884 0001591 267.7783  91.6122 15.56132202  4047"
      },
      "geometry": {
        "type": "Point",
        "coordinates": [
          94.26984874060612,
          -42.952062864380146
        ]
      }
    },
    {
      "type": "Feature",
      "properties": {
        "norad_id": 66505,
        "name": "STARLINK-34766",
        "group": "last-30-days",
        "lat": 42.83262014480053,
        "lon": -82.87537147862969,
        "alt_km": 345.79915837321187,
        "timestamp": "2025-12-03T04:52:28.420736+00:00",
        "meta_object_name": "STARLINK-34766",
        "meta_object_id": "2025-263W",
        "meta_epoch": "2025-12-02T20:00:03.000384",
        "meta_mean_motion": 15.74213562,
        "meta_eccentricity": 0.0001231,
        "meta_inclination": 42.9984,
        "meta_ra_of_asc_node": 183.5964,
        "meta_arg_of_pericenter": 262.6555,
        "meta_mean_anomaly": 254.7148,
        "meta_ephemeris_type": 0,
        "meta_classification_type": "U",
        "meta_norad_cat_id": 66505,
        "meta_element_set_no": 999,
        "meta_rev_at_epoch": 404,
        "meta_bstar": -0.015166,
        "meta_mean_motion_dot": -0.01986796,
        "meta_mean_motion_ddot": 0,
        "tle_line1": "1 66505U 25263W   25336.83336806 -.01986796  00000+0 -15166-1 0  9993",
        "tle_line2": "2 66505  42.9984 183.5964 0001231 262.6555 254.7148 15.74213562  4049"
      },
      "geometry": {
        "type": "Point",
        "coordinates": [
          -82.87537147862969,
          42.83262014480053
        ]
      }
    },
    {
      "type": "Feature",
      "properties": {
        "norad_id": 66506,
        "name": "STARLINK-34765",
        "group": "last-30-days",
        "lat": 42.67153296285622,
        "lon": -80.2738731790269,
        "alt_km": 345.84488176884406,
        "timestamp": "2025-12-03T04:52:28.420768+00:00",
        "meta_object_name": "STARLINK-34765",
        "meta_object_id": "2025-263X",
        "meta_epoch": "2025-12-02T20:00:03.000384",
        "meta_mean_motion": 15.74212259,
        "meta_eccentricity": 0.0001265,
        "meta_inclination": 42.9984,
        "meta_ra_of_asc_node": 183.5924,
        "meta_arg_of_pericenter": 267.9092,
        "meta_mean_anomaly": 251.3752,
        "meta_ephemeris_type": 0,
        "meta_classification_type": "U",
        "meta_norad_cat_id": 66506,
        "meta_element_set_no": 999,
        "meta_rev_at_epoch": 404,
        "meta_bstar": -0.015116,
        "meta_mean_motion_dot": -0.01980959,
        "meta_mean_motion_ddot": 0,
        "tle_line1": "1 66506U 25263X   25336.83336806 -.01980959  00000+0 -15116-1 0  9994",
        "tle_line2": "2 66506  42.9984 183.5924 0001265 267.9092 251.3752 15.74212259  4043"
      },
      "geometry": {
        "type": "Point",
        "coordinates": [
          -80.2738731790269,
          42.67153296285622
        ]
      }
    }
  ]
}